IRIDIUM 119             
1 42959U 17061E   23322.53077324  .00000310  00000+0  10370-3 0  9994
2 42959  86.3987  58.7670 0001979 103.4794 256.6622 14.34217349319841
IRIDIUM 107             
1 42960U 17061F   23322.54980715  .00000362  00000+0  12214-3 0  9990
2 42960  86.3986  58.7746 0002231 102.8074 257.3371 14.34217957319857
IRIDIUM 132             
1 42961U 17061G   23322.55614856  .00000355  00000+0  11985-3 0  9998
2 42961  86.3986  58.7579 0002152 102.5045 257.6392 14.34218740319856
IRIDIUM 136             
1 42962U 17061H   23322.72739306  .00000345  00000+0  11621-3 0  9992
2 42962  86.3988  58.6887 0001813  98.8751 261.2650 14.34219974319896
IRIDIUM 139             
1 42963U 17061J   23322.52443100  .00000338  00000+0  11355-3 0  9991
2 42963  86.3987  58.8204 0002242 101.3142 258.8306 14.34219977319873
IRIDIUM 125             
1 42964U 17061K   23322.51176766  .00000356  00000+0  12018-3 0  9999
2 42964  86.3990  58.8695 0002013 107.5554 252.5862 14.34214526319887
IRIDIUM 135             
1 43070U 17083A   23323.18355149  .00000207  00000+0  66778-4 0  9998
2 43070  86.3981 355.3028 0002415  90.9804 269.1669 14.34214502309275
IRIDIUM 138             
1 43071U 17083B   23323.48800782  .00000274  00000+0  90671-4 0  9993
2 43071  86.3970 354.9194 0002057  98.0265 262.1164 14.34218454309302
