<?xml version="1.0" encoding="UTF-8"?>
<ndm xmlns:xsi="http://www.w3.org/2001/XMLSchema-instance" xsi:noNamespaceSchemaLocation="https://sanaregistry.org/r/ndmxml_unqualified/ndmxml-2.0.0-master-2.0.xsd">
<omm id="CCSDS_OMM_VERS" version="2.0">
<header><CREATION_DATE/><ORIGINATOR/></header><body><segment><metadata><OBJECT_NAME>IRIDIUM 119</OBJECT_NAME><OBJECT_ID>2017-061E</OBJECT_ID><CENTER_NAME>EARTH</CENTER_NAME><REF_FRAME>TEME</REF_FRAME><TIME_SYSTEM>UTC</TIME_SYSTEM><MEAN_ELEMENT_THEORY>SGP4</MEAN_ELEMENT_THEORY></metadata><data><meanElements><EPOCH>2023-11-18T12:44:18.807936</EPOCH><MEAN_MOTION>14.34217349</MEAN_MOTION><ECCENTRICITY>.0001979</ECCENTRICITY><INCLINATION>86.3987</INCLINATION><RA_OF_ASC_NODE>58.7670</RA_OF_ASC_NODE><ARG_OF_PERICENTER>103.4794</ARG_OF_PERICENTER><MEAN_ANOMALY>256.6622</MEAN_ANOMALY></meanElements><tleParameters><EPHEMERIS_TYPE>0</EPHEMERIS_TYPE><CLASSIFICATION_TYPE>U</CLASSIFICATION_TYPE><NORAD_CAT_ID>42959</NORAD_CAT_ID><ELEMENT_SET_NO>999</ELEMENT_SET_NO><REV_AT_EPOCH>31984</REV_AT_EPOCH><BSTAR>.1037E-3</BSTAR><MEAN_MOTION_DOT>.31E-5</MEAN_MOTION_DOT><MEAN_MOTION_DDOT>0</MEAN_MOTION_DDOT></tleParameters></data></segment></body></omm>
<omm id="CCSDS_OMM_VERS" version="2.0">
<header><CREATION_DATE/><ORIGINATOR/></header><body><segment><metadata><OBJECT_NAME>IRIDIUM 107</OBJECT_NAME><OBJECT_ID>2017-061F</OBJECT_ID><CENTER_NAME>EARTH</CENTER_NAME><REF_FRAME>TEME</REF_FRAME><TIME_SYSTEM>UTC</TIME_SYSTEM><MEAN_ELEMENT_THEORY>SGP4</MEAN_ELEMENT_THEORY></metadata><data><meanElements><EPOCH>2023-11-18T13:11:43.337760</EPOCH><MEAN_MOTION>14.34217957</MEAN_MOTION><ECCENTRICITY>.0002231</ECCENTRICITY><INCLINATION>86.3986</INCLINATION><RA_OF_ASC_NODE>58.7746</RA_OF_ASC_NODE><ARG_OF_PERICENTER>102.8074</ARG_OF_PERICENTER><MEAN_ANOMALY>257.3371</MEAN_ANOMALY></meanElements><tleParameters><EPHEMERIS_TYPE>0</EPHEMERIS_TYPE><CLASSIFICATION_TYPE>U</CLASSIFICATION_TYPE><NORAD_CAT_ID>42960</NORAD_CAT_ID><ELEMENT_SET_NO>999</ELEMENT_SET_NO><REV_AT_EPOCH>31985</REV_AT_EPOCH><BSTAR>.12214E-3</BSTAR><MEAN_MOTION_DOT>.362E-5</MEAN_MOTION_DOT><MEAN_MOTION_DDOT>0</MEAN_MOTION_DDOT></tleParameters></data></segment></body></omm>
<omm id="CCSDS_OMM_VERS" version="2.0">
<header><CREATION_DATE/><ORIGINATOR/></header><body><segment><metadata><OBJECT_NAME>IRIDIUM 132</OBJECT_NAME><OBJECT_ID>2017-061G</OBJECT_ID><CENTER_NAME>EARTH</CENTER_NAME><REF_FRAME>TEME</REF_FRAME><TIME_SYSTEM>UTC</TIME_SYSTEM><MEAN_ELEMENT_THEORY>SGP4</MEAN_ELEMENT_THEORY></metadata><data><meanElements><EPOCH>2023-11-18T13:20:51.235584</EPOCH><MEAN_MOTION>14.34218740</MEAN_MOTION><ECCENTRICITY>.0002152</ECCENTRICITY><INCLINATION>86.3986</INCLINATION><RA_OF_ASC_NODE>58.7579</RA_OF_ASC_NODE><ARG_OF_PERICENTER>102.5045</ARG_OF_PERICENTER><MEAN_ANOMALY>257.6392</MEAN_ANOMALY></meanElements><tleParameters><EPHEMERIS_TYPE>0</EPHEMERIS_TYPE><CLASSIFICATION_TYPE>U</CLASSIFICATION_TYPE><NORAD_CAT_ID>42961</NORAD_CAT_ID><ELEMENT_SET_NO>999</ELEMENT_SET_NO><REV_AT_EPOCH>31985</REV_AT_EPOCH><BSTAR>.11985E-3</BSTAR><MEAN_MOTION_DOT>.355E-5</MEAN_MOTION_DOT><MEAN_MOTION_DDOT>0</MEAN_MOTION_DDOT></tleParameters></data></segment></body></omm>
<omm id="CCSDS_OMM_VERS" version="2.0">
<header><CREATION_DATE/><ORIGINATOR/></header><body><segment><metadata><OBJECT_NAME>IRIDIUM 136</OBJECT_NAME><OBJECT_ID>2017-061H</OBJECT_ID><CENTER_NAME>EARTH</CENTER_NAME><REF_FRAME>TEME</REF_FRAME><TIME_SYSTEM>UTC</TIME_SYSTEM><MEAN_ELEMENT_THEORY>SGP4</MEAN_ELEMENT_THEORY></metadata><data><meanElements><EPOCH>2023-11-18T17:27:26.760384</EPOCH><MEAN_MOTION>14.34219974</MEAN_MOTION><ECCENTRICITY>.0001813</ECCENTRICITY><INCLINATION>86.3988</INCLINATION><RA_OF_ASC_NODE>58.6887</RA_OF_ASC_NODE><ARG_OF_PERICENTER>98.8751</ARG_OF_PERICENTER><MEAN_ANOMALY>261.2650</MEAN_ANOMALY></meanElements><tleParameters><EPHEMERIS_TYPE>0</EPHEMERIS_TYPE><CLASSIFICATION_TYPE>U</CLASSIFICATION_TYPE><NORAD_CAT_ID>42962</NORAD_CAT_ID><ELEMENT_SET_NO>999</ELEMENT_SET_NO><REV_AT_EPOCH>31989</REV_AT_EPOCH><BSTAR>.11621E-3</BSTAR><MEAN_MOTION_DOT>.345E-5</MEAN_MOTION_DOT><MEAN_MOTION_DDOT>0</MEAN_MOTION_DDOT></tleParameters></data></segment></body></omm>
<omm id="CCSDS_OMM_VERS" version="2.0">
<header><CREATION_DATE/><ORIGINATOR/></header><body><segment><metadata><OBJECT_NAME>IRIDIUM 139</OBJECT_NAME><OBJECT_ID>2017-061J</OBJECT_ID><CENTER_NAME>EARTH</CENTER_NAME><REF_FRAME>TEME</REF_FRAME><TIME_SYSTEM>UTC</TIME_SYSTEM><MEAN_ELEMENT_THEORY>SGP4</MEAN_ELEMENT_THEORY></metadata><data><meanElements><EPOCH>2023-11-18T12:35:10.838400</EPOCH><MEAN_MOTION>14.34219977</MEAN_MOTION><ECCENTRICITY>.0002242</ECCENTRICITY><INCLINATION>86.3987</INCLINATION><RA_OF_ASC_NODE>58.8204</RA_OF_ASC_NODE><ARG_OF_PERICENTER>101.3142</ARG_OF_PERICENTER><MEAN_ANOMALY>258.8306</MEAN_ANOMALY></meanElements><tleParameters><EPHEMERIS_TYPE>0</EPHEMERIS_TYPE><CLASSIFICATION_TYPE>U</CLASSIFICATION_TYPE><NORAD_CAT_ID>42963</NORAD_CAT_ID><ELEMENT_SET_NO>999</ELEMENT_SET_NO><REV_AT_EPOCH>31987</REV_AT_EPOCH><BSTAR>.11355E-3</BSTAR><MEAN_MOTION_DOT>.338E-5</MEAN_MOTION_DOT><MEAN_MOTION_DDOT>0</MEAN_MOTION_DDOT></tleParameters></data></segment></body></omm>
<omm id="CCSDS_OMM_VERS" version="2.0">
<header><CREATION_DATE/><ORIGINATOR/></header><body><segment><metadata><OBJECT_NAME>IRIDIUM 125</OBJECT_NAME><OBJECT_ID>2017-061K</OBJECT_ID><CENTER_NAME>EARTH</CENTER_NAME><REF_FRAME>TEME</REF_FRAME><TIME_SYSTEM>UTC</TIME_SYSTEM><MEAN_ELEMENT_THEORY>SGP4</MEAN_ELEMENT_THEORY></metadata><data><meanElements><EPOCH>2023-11-18T12:16:56.725824</EPOCH><MEAN_MOTION>14.34214526</MEAN_MOTION><ECCENTRICITY>.0002013</ECCENTRICITY><INCLINATION>86.3990</INCLINATION><RA_OF_ASC_NODE>58.8695</RA_OF_ASC_NODE><ARG_OF_PERICENTER>107.5554</ARG_OF_PERICENTER><MEAN_ANOMALY>252.5862</MEAN_ANOMALY></meanElements><tleParameters><EPHEMERIS_TYPE>0</EPHEMERIS_TYPE><CLASSIFICATION_TYPE>U</CLASSIFICATION_TYPE><NORAD_CAT_ID>42964</NORAD_CAT_ID><ELEMENT_SET_NO>999</ELEMENT_SET_NO><REV_AT_EPOCH>31988</REV_AT_EPOCH><BSTAR>.12018E-3</BSTAR><MEAN_MOTION_DOT>.356E-5</MEAN_MOTION_DOT><MEAN_MOTION_DDOT>0</MEAN_MOTION_DDOT></tleParameters></data></segment></body></omm>
<omm id="CCSDS_OMM_VERS" version="2.0">
<header><CREATION_DATE/><ORIGINATOR/></header><body><segment><metadata><OBJECT_NAME>IRIDIUM 135</OBJECT_NAME><OBJECT_ID>2017-083A</OBJECT_ID><CENTER_NAME>EARTH</CENTER_NAME><REF_FRAME>TEME</REF_FRAME><TIME_SYSTEM>UTC</TIME_SYSTEM><MEAN_ELEMENT_THEORY>SGP4</MEAN_ELEMENT_THEORY></metadata><data><meanElements><EPOCH>2023-11-19T04:24:18.848736</EPOCH><MEAN_MOTION>14.34214502</MEAN_MOTION><ECCENTRICITY>.0002415</ECCENTRICITY><INCLINATION>86.3981</INCLINATION><RA_OF_ASC_NODE>355.3028</RA_OF_ASC_NODE><ARG_OF_PERICENTER>90.9804</ARG_OF_PERICENTER><MEAN_ANOMALY>269.1669</MEAN_ANOMALY></meanElements><tleParameters><EPHEMERIS_TYPE>0</EPHEMERIS_TYPE><CLASSIFICATION_TYPE>U</CLASSIFICATION_TYPE><NORAD_CAT_ID>43070</NORAD_CAT_ID><ELEMENT_SET_NO>999</ELEMENT_SET_NO><REV_AT_EPOCH>30927</REV_AT_EPOCH><BSTAR>.66778E-4</BSTAR><MEAN_MOTION_DOT>.207E-5</MEAN_MOTION_DOT><MEAN_MOTION_DDOT>0</MEAN_MOTION_DDOT></tleParameters></data></segment></body></omm>
<omm id="CCSDS_OMM_VERS" version="2.0">
<header><CREATION_DATE/><ORIGINATOR/></header><body><segment><metadata><OBJECT_NAME>IRIDIUM 138</OBJECT_NAME><OBJECT_ID>2017-083B</OBJECT_ID><CENTER_NAME>EARTH</CENTER_NAME><REF_FRAME>TEME</REF_FRAME><TIME_SYSTEM>UTC</TIME_SYSTEM><MEAN_ELEMENT_THEORY>SGP4</MEAN_ELEMENT_THEORY></metadata><data><meanElements><EPOCH>2023-11-19T11:42:43.875648</EPOCH><MEAN_MOTION>14.34218454</MEAN_MOTION><ECCENTRICITY>.0002057</ECCENTRICITY><INCLINATION>86.3970</INCLINATION><RA_OF_ASC_NODE>354.9194</RA_OF_ASC_NODE><ARG_OF_PERICENTER>98.0265</ARG_OF_PERICENTER><MEAN_ANOMALY>262.1164</MEAN_ANOMALY></meanElements><tleParameters><EPHEMERIS_TYPE>0</EPHEMERIS_TYPE><CLASSIFICATION_TYPE>U</CLASSIFICATION_TYPE><NORAD_CAT_ID>43071</NORAD_CAT_ID><ELEMENT_SET_NO>999</ELEMENT_SET_NO><REV_AT_EPOCH>30930</REV_AT_EPOCH><BSTAR>.90671E-4</BSTAR><MEAN_MOTION_DOT>.274E-5</MEAN_MOTION_DOT><MEAN_MOTION_DDOT>0</MEAN_MOTION_DDOT></tleParameters></data></segment></body></omm>

</ndm>
